P/2017 D1 (Fuls),e,20.7604,82.1817,7.9837,4.823703,0.0930322,0.43911834,85.9807,01/09.0/2019,2000,g 14.0,4.0
# From MPC112391
C/2017 D2 (Barros),e,31.2590,331.0253,334.3703,1868,0.0000122,0.99866881,0.0000,07/14.6189/2017,2000,g 11.0,4.0
# From MPC111769
C/2017 D3 (ATLAS),h,04/26.8912/2017,125.5614,186.6203,340.8020,1.001436,4.972694,2000,8.0,4.0
# From MPC110495
P/2017 D4 (PANSTARRS),e,10.5196,264.9688,212.1751,7.576900,0.0472571,0.63090856,40.2799,01/09.0/2019,2000,g 13.0,4.0
# From MPC104794
C/2017 D5 (PANSTARRS),e,131.0554,92.7307,287.8353,114.4930,0.0008045,0.98107519,0.0000,01/08.9999/2017,2000,g 16.0,4.0
# From MPC106346
C/2017 E1 (Borisov),h,04/10.2420/2017,14.5566,142.6847,152.5191,1.002785,0.900266,2000,14.0,4.0
# From MPC109144
C/2017 E2 (Tsuchinshan),e,78.9966,11.5446,89.4084,21.59770,0.0098196,0.89113965,9.5453,01/09.0/2019,2000,g 11.5,4.0
# From MPC111769
C/2017 E3 (PANSTARRS),h,06/08.2686/2017,70.6260,220.7274,334.4769,1.008340,5.933390,2000,6.5,4.0
# From MPC105239
C/2017 E4 (Lovejoy),h,04/23.3626/2017,88.1705,223.1921,87.1109,1.001498,0.493024,2000,17.0,4.0
# From MPC105239
C/2017 E5 (Lemmon),e,122.6499,206.2188,306.7965,373.9179,0.0001363,0.99522579,0.0000,06/10.6097/2016,2000,g 13.0,4.0
# From MPC111769
C/2017 F1 (Lemmon),h,11/30.9309/2017,146.4805,158.7596,64.8184,1.004798,4.499430,2000,10.5,4.0
# From MPC111769
C/2017 F2 (PANSTARRS),h,11/27.4363/2017,42.5059,38.6690,134.9985,1.005674,6.929143,2000,7.5,4.0
# From MPC104794
P/2017 G1 (PANSTARRS),e,4.7749,249.6315,224.5992,7.311450,0.0498539,0.65543919,48.9587,01/09.0/2019,2000,g 13.5,4.0
# From MPC108595
P/2017 G2 (PANSTARRS),e,47.9571,79.8045,105.7854,8.113858,0.0426445,0.64965107,24.5076,01/09.0/2019,2000,g 13.0,4.0
# From MPC109144
C/2017 G3 (PANSTARRS),e,159.0551,279.4802,73.1288,289.1985,0.0002004,0.99103914,0.0000,04/15.1010/2017,2000,g 14.0,4.0
# From MPC111769
C/2017 K1 (PANSTARRS),h,03/15.9171/2018,154.0046,225.6398,4.2867,1.000492,7.286667,2000,7.0,4.0
# From MPC112391
C/2017 K2 (PANSTARRS),h,12/20.6003/2022,87.5432,88.2615,236.0853,1.000366,1.805069,2000,1.5,4.0
# From MPC106346
P/2017 K3 (Gasparovic),e,4.2776,354.3155,253.3328,5.575464,0.0748656,0.58114308,43.9643,01/09.0/2019,2000,g 14.5,4.0
# From MPC112391
C/2017 K4 (ATLAS),e,16.6780,298.8886,15.1333,28.23447,0.0065695,0.90620461,2.4038,01/09.0/2019,2000,g 10.0,4.0
# From MPC110495
C/2017 K5 (PANSTARRS),h,03/22.5487/2020,82.2573,102.3775,171.7161,1.003805,7.680228,2000,7.0,4.0
# From MPC112391
C/2017 K6 (Jacques),e,57.2550,85.0549,303.8233,1114,0.0000265,0.99820267,0.0000,01/03.1214/2018,2000,g 11.0,4.0
# From MPC110083
C/2017 M3 (PANSTARRS),e,77.5033,6.9995,110.3666,171.4950,0.0004389,0.97283940,0.0000,04/28.4524/2017,2000,g 10.5,4.0
# From MPC112391
C/2017 M4 (ATLAS),h,01/18.2319/2019,105.6585,65.8671,167.6319,1.002126,3.251764,2000,6.0,4.0
# From MPC112391
C/2017 M5 (TOTAS),h,06/03.1630/2018,15.8848,216.2640,92.6770,1.004156,5.989680,2000,6.5,4.0
# From MPC110495
C/2017 O1 (ASASSN),e,39.8501,25.8050,20.8946,384.0663,0.0001309,0.99609838,0.0000,10/14.7382/2017,2000,g 11.0,4.0
# From MPC106347
P/2017 P1 (PANSTARRS),e,7.7014,221.3937,122.1501,7.875744,0.0445930,0.30940530,9.1768,01/09.0/2019,2000,g 10.0,4.0
# From MPC111769
C/2017 P2 (PANSTARRS),e,50.0774,165.5432,132.2555,1421,0.0000184,0.99826738,0.0000,12/06.6107/2017,2000,g 10.0,4.0
# From MPC108595
P/2017 R1 (PANSTARRS),e,2.5730,143.6410,178.4236,4.134225,0.1172500,0.19523517,75.0971,01/09.0/2019,2000,g 13.5,4.0
# From MPC108595
C/2017 S2 (PANSTARRS),e,12.6834,62.4273,305.9448,20.46343,0.0106472,0.82340406,5.2997,01/09.0/2019,2000,g 13.0,4.0
# From MPC111770
C/2017 S3 (PANSTARRS),h,08/15.9724/2018,99.0384,171.0347,255.8031,1.000630,0.208511,2000,11.0,4.0
# From MPC110083
P/2017 S5 (ATLAS),e,11.8504,252.3920,99.8745,3.170553,0.1745828,0.31326585,92.5457,01/09.0/2019,2000,g 14.0,4.0
# From MPC109591
C/2017 S6 (Catalina),h,02/26.9700/2018,152.8414,130.9165,134.7485,1.001499,1.543321,2000,12.5,4.0
# From MPC112391
C/2017 S7 (Lemmon),h,05/27.2529/2017,124.2334,262.7944,187.7078,1.002412,7.613167,2000,7.0,4.0
# From MPC109145
P/2017 S8 (PANSTARRS),e,29.8560,191.8062,254.5786,2.776065,0.2130883,0.39348516,73.5890,01/09.0/2019,2000,g 16.0,4.0
# From MPC107050
P/2017 S9 (PANSTARRS),e,14.1403,146.2107,237.8202,3.155552,0.1758292,0.30460202,94.0078,01/09.0/2019,2000,g 17.0,4.0
# From MPC109145
C/2017 T1 (Heinze),h,02/21.6949/2018,96.8415,102.3233,96.8900,1.000002,0.580454,2000,14.5,4.0
# From MPC112391
C/2017 T2 (PANSTARRS),e,57.2367,64.3781,93.0013,10281,0.0000009,0.99984295,0.0000,05/04.9102/2020,2000,g  5.0,4.0
# From MPC111770
C/2017 T3 (ATLAS),e,88.1026,230.0860,246.8793,4157,0.0000037,0.99980145,0.0000,07/19.1635/2018,2000,g 10.0,4.0
# From MPEC 2018-W75
P/2017 TW13 (Lemmon),e,44.8389,322.2747,120.1069,7.159808,0.0514460,0.70965714,10.3935,01/09.0/2019,2000,g 15.0,2.0
# From MPC109145
C/2017 U2 (Fuls),e,95.4111,149.7175,147.7332,8910,0.0000012,0.99924801,0.0000,08/28.1669/2017,2000,g  9.0,4.0
# From MPC109146
P/2017 U3 (PANSTARRS),e,15.9077,165.1291,297.3991,4.934974,0.0899035,0.09939730,350.8018,01/09.0/2019,2000,g 11.0,4.0
# From MPC112392
C/2017 U4 (PANSTARRS),h,09/25.1635/2018,158.2266,245.9509,159.1428,1.003789,7.724200,2000,7.0,4.0
# From MPC109146
C/2017 U5 (PANSTARRS),e,18.9583,163.1019,262.1206,16.90877,0.0141754,0.74413608,5.4745,01/09.0/2019,2000,g 12.0,4.0
# From MPC111770
C/2017 W2 (Leonard),e,98.1905,312.8148,169.1623,13.70699,0.0194219,0.71128742,8.4105,01/09.0/2019,2000,g 11.0,4.0
# From MPC111770
P/2017 W3 (Gibbs),e,18.3030,210.7521,326.5807,7.771809,0.0454905,0.50614049,14.4235,01/09.0/2019,2000,g 10.5,4.0
# From MPC111770
C/2017 X1 (PANSTARRS),e,31.3114,251.1254,283.1441,31.36607,0.0056107,0.85134097,1.1685,01/09.0/2019,2000,g 10.0,4.0
# From MPC109146
C/2017 Y1 (PANSTARRS),e,55.2454,307.5130,134.4250,2541,0.0000077,0.99853703,0.0000,08/31.3481/2017,2000,g 11.5,4.0
# From MPC109146
C/2017 Y2 (PANSTARRS),e,126.0739,61.4851,146.1396,15.86939,0.0155906,0.67362367,346.9679,01/09.0/2019,2000,g  8.0,4.0
# From MPC111770
P/2017 Y3 (Leonard),e,27.5848,153.8721,67.5312,9.853962,0.0318631,0.87055697,10.5708,01/09.0/2019,2000,g 16.5,4.0
# From MPC111770
C/2018 A1 (PANSTARRS),e,53.5653,336.6201,96.3783,25.22510,0.0077796,0.90409050,3.4667,01/09.0/2019,2000,g 12.5,4.0
# From MPC112392
C/2018 A3 (ATLAS),e,139.5620,194.2797,86.4250,500.5558,0.0000880,0.99345374,0.0000,01/12.8580/2019,2000,g  8.5,4.0
# From MPC109592
C/2018 A4 (PANSTARRS),e,3.1483,97.6266,356.1047,12.38805,0.0226047,0.80599816,5.3189,01/09.0/2019,2000,g 14.0,4.0
# From MPC109147
P/2018 A5 (PANSTARRS),e,23.5776,87.8311,359.6704,5.643923,0.0735076,0.52267362,34.7148,01/09.0/2019,2000,g 15.0,4.0
# From MPC111771
C/2018 A6 (Gibbs),e,76.9546,340.3842,264.5160,15.35227,0.0163850,0.80341304,356.9483,01/09.0/2019,2000,g  9.0,4.0
# From MPC112392
C/2018 B1 (Lemmon),h,03/30.3970/2018,162.4235,133.1721,68.3466,1.002939,5.116638,2000,9.0,4.0
# From MPC111771
P/2018 C1 (Lemmon-Read),e,5.1342,270.4313,234.4153,5.583676,0.0747006,0.53498705,23.6933,01/09.0/2019,2000,g 13.5,4.0
# From MPC112392
C/2018 C2 (Lemmon),h,06/02.1801/2018,34.4582,91.1388,134.1195,1.001544,1.956280,2000,13.0,4.0
# From MPC111771
C/2018 E1 (ATLAS),e,72.4839,146.8388,299.4741,54.35886,0.0024592,0.95022933,0.6558,01/09.0/2019,2000,g 10.5,4.0
# From MPC110496
C/2018 E2 (Barros),e,97.7480,67.1942,277.4867,1261,0.0000220,0.99688920,0.0000,12/23.7491/2017,2000,g 10.5,4.0
# From MPC112392
C/2018 EN4 (NEOWISE),e,81.5629,136.1643,35.0136,18.40967,0.0124777,0.92134524,2.6855,01/09.0/2019,2000,g 15.0,4.0
# From MPC111771
C/2018 EF9 (Lemmon),e,84.6923,172.5795,72.6206,634.0903,0.0000617,0.99754501,0.0000,05/23.1307/2018,2000,g 18.0,2.0
# From MPC111771
C/2018 F1 (Grauer),e,46.0708,177.2893,71.6221,321.9731,0.0001706,0.99070378,0.0000,12/14.0753/2018,2000,g 11.5,4.0
# From MPC110084
C/2018 F3 (Johnson),p,08/15.2314/2017,105.5348,293.0113,2.483172,173.0311,2000,13.0,4.0
# From MPC111771
P/2018 H2 (PANSTARRS),e,7.3893,68.4556,120.1465,4.403727,0.1066531,0.53996963,37.4033,01/09.0/2019,2000,g 16.6,2.0
# From MPC111772
C/2018 K1 (Weiland),e,164.1957,260.0087,324.9766,29.94558,0.0060146,0.93727279,1.6669,01/09.0/2019,2000,g 14.9,4.0
# From MPC112392
C/2018 KJ3 (Lemmon),e,136.6729,91.5863,217.6977,999.3779,0.0000312,0.99637058,0.0000,09/09.8680/2019,2000,g 12.2,2.0
# From MPC111772
P/2018 L1 (PANSTARRS),e,10.5948,268.6271,17.8877,3.647473,0.1414868,0.48301907,8.1323,01/09.0/2019,2000,g 15.0,4.0
# From MPC112392
C/2018 L2 (ATLAS),e,67.4237,243.0181,56.2262,243.6341,0.0002592,0.99297407,0.0000,12/02.5750/2018,2000,g 10.0,4.0
# From MPC112392
P/2018 L4 (PANSTARRS),e,26.6257,145.1921,140.4393,4.933819,0.0899351,0.66024953,14.4929,01/09.0/2019,2000,g 17.5,4.0
# From MPC112392
P/2018 L5 (Leonard),e,2.2091,219.1603,93.6465,3.625412,0.1427802,0.36466326,35.6206,01/09.0/2019,2000,g 14.5,4.0
# From MPC112392
C/2018 M1 (Catalina),e,37.2575,339.4620,14.1361,21.30679,0.0100214,0.93882282,1.8336,01/09.0/2019,2000,g 15.5,4.0
# From MPC112393
C/2018 N1 (NEOWISE),e,159.4440,292.4466,354.5617,343.4103,0.0001549,0.99619345,0.0000,08/01.9830/2018,2000,g 15.5,4.0
# From MPC112393
C/2018 N2 (ASASSN),e,77.5377,25.2603,24.4032,16181,0.0000005,0.99980689,0.0000,11/11.0460/2019,2000,g  6.0,4.0
# From MPC112393
C/2018 O1 (ATLAS),e,154.0426,87.6213,162.4996,27.84592,0.0067075,0.94404759,0.8749,01/09.0/2019,2000,g 17.0,4.0
# From MPEC 2018-Y53
P/2018 P3 (PANSTARRS),e,8.9091,59.2099,305.8850,3.007098,0.1890091,0.41589952,17.3015,01/09.0/2019,2000,g 14.5,4.0
# From MPC112393
P/2018 P4 (PANSTARRS),e,23.1113,353.1099,8.1113,6.658763,0.0573606,0.44942480,3.5955,01/09.0/2019,2000,g 12.0,4.0
# From MPC112393
C/2018 P5 (PANSTARRS),e,7.2568,216.2421,131.6297,12.73869,0.0216779,0.64078846,358.9554,01/09.0/2019,2000,g 11.0,4.0
# From MPC112393
C/2018 R3 (Lemmon),e,69.7137,324.6263,112.8802,1414,0.0000185,0.99908708,0.0000,06/07.2369/2019,2000,g 11.5,4.0
# From MPC112393
